KUIPER-00616            
1 69775U 26151N   26196.56848333  .00009539  00000+0  25797-3 0  9991
2 69775  51.8776 178.4908 0003096 122.2284 237.9003 15.38393428  2075
KUIPER-00617            
1 69776U 26151P   26196.57284052  .00013764  00000+0  37470-3 0  9991
2 69776  51.8787 178.5159 0004112 138.0456 222.0846 15.37785877  2075
KUIPER-00619            
1 69777U 26151Q   26196.56640396  .00013846  00000+0  36781-3 0  9993
2 69777  51.8795 178.4710 0001796  61.1174 298.9994 15.38544065  2074
KUIPER-00621            
1 69778U 26151R   26196.43843555  .00013100  00000+0  35095-3 0  9992
2 69778  51.8788 179.1166 0002028 112.4758 247.6444 15.38333914  2055
KUIPER-00622            
1 69779U 26151S   26196.44962182  .00010998  00000+0  30933-3 0  9990
2 69779  51.8725 179.1910 0006769 149.3251 210.8132 15.36988738  2051
KUIPER-00623            
1 69780U 26151T   26196.44552521  .00013463  00000+0  37090-3 0  9995
2 69780  51.8764 179.1652 0004846 134.3650 225.7735 15.37433953  2059
KUIPER-00626            
1 69781U 26151U   26196.52428825  .00011434  00000+0  33633-3 0  9999
2 69781  51.8713 178.9367 0008518 167.1734 192.9471 15.35526012  2061
KUIPER-00627            
1 69782U 26151V   26196.59113955  .00001532  00000+0  54883-4 0  9991
2 69782  51.8686 178.6339 0010955 167.5462 192.5797 15.35408343  2071
KUIPER-00629            
1 69783U 26151W   26196.51528900 -.00215177  00000+0 -61109-2 0  9995
2 69783  51.8736 178.8828 0007153 148.1054 212.0367 15.36451528  2065
KUIPER-00631            
1 69784U 26151X   26196.51709494  .00010354  00000+0  29412-3 0  9995
2 69784  51.8704 178.8910 0007913 156.7091 203.4255 15.36739242  2065
KUIPER-00634            
1 69785U 26151Y   26196.44337620  .00008585  00000+0  23817-3 0  9992
2 69785  51.8763 179.1507 0003678 136.8278 223.2998 15.37737978  2055
KUIPER-00639            
1 69786U 26151Z   26196.58711506 -.00005397  00000+0 -14147-3 0  9993
2 69786  51.8682 178.6074 0009880 164.4795 195.6495 15.35794228  2076
KUIPER-00641            
1 69787U 26151AA  26196.59204816 -.00011126  00000+0 -31135-3 0  9999
2 69787  51.8670 178.6381 0007559 163.8307 196.2921 15.35040464  2075
KUIPER-00644            
1 69788U 26151AB  26196.58335648 -.00026138  00000+0 -71163-3 0  9991
2 69788  51.8729 178.5908 0008448 158.6350 199.5357 15.36575271  3006
KUIPER-00646            
1 69789U 26151AC  26196.58665215  .00007421  00000+0  21956-3 0  9995
2 69789  51.8695 178.6048 0009690 166.6549 193.4695 15.35908355  2070
KUIPER-00647            
1 69790U 26151AD  26196.59024696 -.00026430  00000+0 -74643-3 0  9994
2 69790  51.8655 178.6259 0010273 166.7861 193.3395 15.35427911  2079
KUIPER-00662            
1 69791U 26151AE  26195.47742373 -.00129583  00000+0 -36493-2 0  9993
2 69791  51.8719 183.9237 0008206 150.8768 209.2677 15.36321024  1909
LINK                    
1 69792U 26152A   26196.50301601  .00154347  00000+0  13181-2 0  9998
2 69792  20.5924 325.0312 0024663 359.5030   0.5390 15.67260194  1907
ISS OBJECT YJ           
1 69794U 98067YJ  26196.30812191  .00019799  00000+0  35330-3 0  9995
2 69794  51.6310 160.8480 0007781 311.8459  48.1865 15.50032411  2011
ISS OBJECT YK           
1 69795U 98067YK  26196.30431416  .00035697  00000+0  61447-3 0  9996
2 69795  51.6310 160.8232 0006739 320.5699  39.4799 15.50714912  2014
ISS OBJECT YL           
1 69796U 98067YL  26196.30528394  .00027377  00000+0  47729-3 0  9992
2 69796  51.6311 160.8298 0008829 313.2532  46.7719 15.50477094  2004
ISS OBJECT YM           
1 69797U 98067YM  26196.30502984  .00027892  00000+0  48524-3 0  9996
2 69797  51.6312 160.8279 0009603 304.4427  55.5654 15.50519128  1999
ISS OBJECT YN           
1 69798U 98067YN  26196.30572285  .00018980  00000+0  33560-3 0  9990
2 69798  51.6312 160.8322 0009225 315.6457  44.3793 15.50311307  2019
ISS OBJECT YP           
1 69799U 98067YP  26196.62721427  .00029188  00000+0  50705-3 0  9992
2 69799  51.6313 159.2292 0009745 305.4764  54.5315 15.50534114  2054
QIANFAN-201             
1 69800U 26153A   26196.52706125  .00000146  00000+0  28998-4 0  9992
2 69800  89.0163 358.9381 0087058  85.8576 275.2577 14.53448685  1628
QIANFAN-202             
1 69801U 26153B   26196.46482435 -.02066183  00000+0 -10892+1 0  9998
2 69801  88.9915 359.0199 0013097 178.9748 181.1470 14.18136796  1588
QIANFAN-203             
1 69802U 26153C   26196.53325337 -.02035468  00000+0 -10513+1 0  9996
2 69802  88.9917 359.0117 0011906 189.5855 170.5109 14.19175256  1592
QIANFAN-204             
1 69803U 26153D   26196.53378361  .00000096  00000+0  36555-4 0  9995
2 69803  88.9922 359.0115 0007259 182.5075 177.6081 14.22390548  1594
QIANFAN-205             
1 69804U 26153E   26196.53498863  .00000162  00000+0  66451-4 0  9998
2 69804  88.9921 359.0114 0007470 180.9447 179.1731 14.22264363  1597
