OBJECT_NAME,OBJECT_ID,EPOCH,MEAN_MOTION,ECCENTRICITY,INCLINATION,RA_OF_ASC_NODE,ARG_OF_PERICENTER,MEAN_ANOMALY,EPHEMERIS_TYPE,CLASSIFICATION_TYPE,NORAD_CAT_ID,ELEMENT_SET_NO,REV_AT_EPOCH,BSTAR,MEAN_MOTION_DOT,MEAN_MOTION_DDOT
KUIPER-00616,2026-151N,2026-07-15T13:38:36.959712,15.38393428,.00030969,51.8776,178.4908,122.2284,237.9003,0,U,69775,999,207,.25797108E-3,.9539E-4,0
KUIPER-00617,2026-151P,2026-07-15T13:44:53.420928,15.37785877,.0004112,51.8787,178.5159,138.0456,222.0846,0,U,69776,999,207,.37470063E-3,.13764E-3,0
KUIPER-00619,2026-151Q,2026-07-15T13:35:37.302144,15.38544065,.00017969,51.8795,178.4710,61.1174,298.9994,0,U,69777,999,207,.36781315E-3,.13846E-3,0
KUIPER-00621,2026-151R,2026-07-15T10:31:20.831520,15.38333914,.00020287,51.8788,179.1166,112.4758,247.6444,0,U,69778,999,205,.35094743E-3,.131E-3,0
KUIPER-00622,2026-151S,2026-07-15T10:47:27.325248,15.36988738,.00067692,51.8725,179.1910,149.3251,210.8132,0,U,69779,999,205,.30932716E-3,.10998E-3,0
KUIPER-00623,2026-151T,2026-07-15T10:41:33.378144,15.37433953,.00048462,51.8764,179.1652,134.3650,225.7735,0,U,69780,999,205,.37090055E-3,.13463E-3,0
KUIPER-00626,2026-151U,2026-07-15T12:34:58.504800,15.35526012,.00085183,51.8713,178.9367,167.1734,192.9471,0,U,69781,999,206,.33633105E-3,.11434E-3,0
KUIPER-00627,2026-151V,2026-07-15T14:11:14.457120,15.35408343,.00109551,51.8686,178.6339,167.5462,192.5797,0,U,69782,999,207,.54882833E-4,.1532E-4,0
KUIPER-00629,2026-151W,2026-07-15T12:22:00.969600,15.36451528,.00071532,51.8736,178.8828,148.1054,212.0367,0,U,69783,999,206,-.61109438E-2,-.215177E-2,0
KUIPER-00631,2026-151X,2026-07-15T12:24:37.002816,15.36739242,.00079133,51.8704,178.8910,156.7091,203.4255,0,U,69784,999,206,.29412323E-3,.10354E-3,0
KUIPER-00634,2026-151Y,2026-07-15T10:38:27.703680,15.37737978,.00036783,51.8763,179.1507,136.8278,223.2998,0,U,69785,999,205,.23817204E-3,.8585E-4,0
KUIPER-00639,2026-151Z,2026-07-15T14:05:26.741184,15.35794228,.00098806,51.8682,178.6074,164.4795,195.6495,0,U,69786,999,207,-.14147073E-3,-.5397E-4,0
KUIPER-00641,2026-151AA,2026-07-15T14:12:32.961024,15.35040464,.00075599,51.8670,178.6381,163.8307,196.2921,0,U,69787,999,207,-.31135362E-3,-.11126E-3,0
KUIPER-00644,2026-151AB,2026-07-15T14:00:01.999872,15.36575271,.00084484,51.8729,178.5908,158.6350,199.5357,0,U,69788,999,300,-.7116295E-3,-.26138E-3,0
KUIPER-00646,2026-151AC,2026-07-15T14:04:46.745760,15.35908355,.000969,51.8695,178.6048,166.6549,193.4695,0,U,69789,999,207,.21956391E-3,.7421E-4,0
KUIPER-00647,2026-151AD,2026-07-15T14:09:57.337344,15.35427911,.00102733,51.8655,178.6259,166.7861,193.3395,0,U,69790,999,207,-.74642673E-3,-.2643E-3,0
KUIPER-00662,2026-151AE,2026-07-14T11:27:29.410272,15.36321024,.00082067,51.8719,183.9237,150.8768,209.2677,0,U,69791,999,190,-.36493324E-2,-.129583E-2,0
LINK,2026-152A,2026-07-15T12:04:20.583264,15.67260194,.0024663,20.5924,325.0312,359.5030,0.5390,0,U,69792,999,190,.13180619E-2,.154347E-2,0
ISS OBJECT YJ,1998-067YJ,2026-07-15T07:23:41.733024,15.50032411,.00077813,51.6310,160.8480,311.8459,48.1865,0,U,69794,999,201,.35330185E-3,.19799E-3,0
ISS OBJECT YK,1998-067YK,2026-07-15T07:18:12.743424,15.50714912,.0006739,51.6310,160.8232,320.5699,39.4799,0,U,69795,999,201,.61446842E-3,.35697E-3,0
ISS OBJECT YL,1998-067YL,2026-07-15T07:19:36.532416,15.50477094,.00088293,51.6311,160.8298,313.2532,46.7719,0,U,69796,999,200,.47729496E-3,.27377E-3,0
ISS OBJECT YM,1998-067YM,2026-07-15T07:19:14.578176,15.50519128,.00096036,51.6312,160.8279,304.4427,55.5654,0,U,69797,999,199,.48523971E-3,.27892E-3,0
ISS OBJECT YN,1998-067YN,2026-07-15T07:20:14.454240,15.50311307,.00092255,51.6312,160.8322,315.6457,44.3793,0,U,69798,999,201,.33559953E-3,.1898E-3,0
ISS OBJECT YP,1998-067YP,2026-07-15T15:03:11.312928,15.50534114,.00097457,51.6313,159.2292,305.4764,54.5315,0,U,69799,999,205,.50705332E-3,.29188E-3,0
QIANFAN-201,2026-153A,2026-07-15T12:38:58.092000,14.53448685,.00870582,89.0163,358.9381,85.8576,275.2577,0,U,69800,999,162,.2899821E-4,.146E-5,0
QIANFAN-202,2026-153B,2026-07-15T11:09:20.823840,14.18136796,.00130977,88.9915,359.0199,178.9748,181.1470,0,U,69801,999,158,-.10891573E+1,-.2066183E-1,0
QIANFAN-203,2026-153C,2026-07-15T12:47:53.091168,14.19175256,.00119062,88.9917,359.0117,189.5855,170.5109,0,U,69802,999,159,-.1051275E+1,-.2035468E-1,0
QIANFAN-204,2026-153D,2026-07-15T12:48:38.903904,14.22390548,.00072599,88.9922,359.0115,182.5075,177.6081,0,U,69803,999,159,.36554859E-4,.96E-6,0
QIANFAN-205,2026-153E,2026-07-15T12:50:23.017632,14.22264363,.00074701,88.9921,359.0114,180.9447,179.1731,0,U,69804,999,159,.66450948E-4,.162E-5,0
